[{"OBJECT_NAME":"STARLINK-36450","OBJECT_ID":"2026-002N","EPOCH":"2026-03-09T10:05:21.811776","MEAN_MOTION":15.27591291,"ECCENTRICITY":8.244e-5,"INCLINATION":43.0057,"RA_OF_ASC_NODE":327.1425,"ARG_OF_PERICENTER":300.9814,"MEAN_ANOMALY":59.0957,"EPHEMERIS_TYPE":0,"CLASSIFICATION_TYPE":"U","NORAD_CAT_ID":67317,"ELEMENT_SET_NO":999,"REV_AT_EPOCH":1119,"BSTAR":0.0011516158,"MEAN_MOTION_DOT":0.00031574,"MEAN_MOTION_DDOT":0},{"OBJECT_NAME":"FENGYUN 1C DEB","OBJECT_ID":"1999-025ETT","EPOCH":"2026-03-07T08:30:03.670560","MEAN_MOTION":15.28888299,"ECCENTRICITY":0.00158464,"INCLINATION":99.1103,"RA_OF_ASC_NODE":112.0072,"ARG_OF_PERICENTER":201.0032,"MEAN_ANOMALY":159.0553,"EPHEMERIS_TYPE":0,"CLASSIFICATION_TYPE":"U","NORAD_CAT_ID":38726,"ELEMENT_SET_NO":999,"REV_AT_EPOCH":71135,"BSTAR":0.013792546,"MEAN_MOTION_DOT":0.00409659,"MEAN_MOTION_DDOT":0}]
